NORAD_CAT_ID,OBJECT_NAME,OBJECT_TYPE,EPOCH,MEAN_MOTION,ECCENTRICITY,INCLINATION,RA_OF_ASC_NODE,ARG_OF_PERICENTER,MEAN_ANOMALY,BSTAR,MEAN_MOTION_DOT,MEAN_MOTION_DDOT,TLE_LINE0,TLE_LINE1,TLE_LINE2,SEMIMAJOR_AXIS,PERIOD,APOGEE,PERIGEE,DECAYED
51135.0,STARLINK-3363,PAYLOAD,2022-10-23 19:13:33,15.08851601,0.0001851,53.218,73.7863,51.2892,308.8266,6.4873e-05,7.45e-06,0.0,0 STARLINK-3363,1 51135U 22005AH  22296.80108732  .00000745  00000-0  64873-4 0  9992,2 51135  53.2180  73.7863 0001851  51.2892 308.8266 15.08851601 42602,6917.845,95.437,540.99,538.429,0.0
51135.0,STARLINK-3363,PAYLOAD,2022-10-24 09:32:02,15.08841382,0.0001847,53.2182,71.1102,52.1437,307.9722,5.5768e-05,6e-06,0.0,0 STARLINK-3363,1 51135U 22005AH  22297.39725086  .00000600  00000-0  55768-4 0  9997,2 51135  53.2182  71.1102 0001847  52.1437 307.9722 15.08841382 42693,6917.876,95.437,541.019,538.4630000000002,0.0
51135.0,STARLINK-3363,PAYLOAD,2022-10-24 19:04:24,15.08805755,0.0002435999999999,53.2196,69.328,33.1492,326.9653,-0.00025519,-4.344e-05,0.0,0 STARLINK-3363,1 51135U 22005AH  22297.79472609 -.00004344  00000-0 -25519-3 0  9992,2 51135  53.2196  69.3280 0002436  33.1492 326.9653 15.08805755 43878,6917.985,95.44,541.535,538.165,0.0
51135.0,STARLINK-3363,PAYLOAD,2022-10-25 09:22:51,15.0882013,0.0001646,53.2198,66.6513,35.2005,324.9096,-0.00012571,-2.287e-05,0.0,0 STARLINK-3363,1 51135U 22005AH  22298.39087960 -.00002287  00000-0 -12571-3 0  9999,2 51135  53.2198  66.6513 0001646  35.2005 324.9096 15.08820130 42843,6917.941,95.439,540.945,538.6669999999998,0.0
51135.0,STARLINK-3363,PAYLOAD,2022-10-25 15:44:23,15.08831871,0.0002005,53.2197,65.4617,60.2714,299.8478,-2.6207e-05,-7.05e-06,0.0,0 STARLINK-3363,1 51135U 22005AH  22298.65583188 -.00000705  00000-0 -26207-4 0  9996,2 51135  53.2197  65.4617 0002005  60.2714 299.8478 15.08831871 42881,6917.905,95.438,541.1569999999998,538.383,0.0
51135.0,STARLINK-3363,PAYLOAD,2022-10-26 07:38:15,15.08837229,0.0001956999999999,53.2191,62.4862,43.1763,316.9382,8.4378e-05,1.055e-05,0.0,0 STARLINK-3363,1 51135U 22005AH  22299.31822943  .00001055  00000-0  84378-4 0  9995,2 51135  53.2191  62.4862 0001957  43.1763 316.9382 15.08837229 44108,6917.889,95.438,541.1080000000002,538.4,0.0
51135.0,STARLINK-3363,PAYLOAD,2022-10-26 12:24:24,15.08831069,0.0001938,53.2179,61.5946,36.2535,323.8588,0.00025938,3.841e-05,0.0,0 STARLINK-3363,1 51135U 22005AH  22299.51694880  .00003841  00000-0  25938-3 0  9995,2 51135  53.2179  61.5946 0001938  36.2535 323.8588 15.08831069 43016,6917.908,95.438,541.113,538.432,0.0
51135.0,STARLINK-3363,PAYLOAD,2022-10-26 18:45:56,15.08838558,0.0001996,53.2184,60.4049,37.4771,322.636,0.00032253,4.848e-05,0.0,0 STARLINK-3363,1 51135U 22005AH  22299.78190672  .00004848  00000-0  32253-3 0  9990,2 51135  53.2184  60.4049 0001996  37.4771 322.6360 15.08838558 43052,6917.885,95.438,541.131,538.369,0.0
51135.0,STARLINK-3363,PAYLOAD,2022-10-27 07:29:02,15.08847314,0.0002094,53.2182,58.0267,47.0811,313.0356,0.00053916,8.305e-05,0.0,0 STARLINK-3363,1 51135U 22005AH  22300.31183051  .00008305  00000-0  53916-3 0  9996,2 51135  53.2182  58.0267 0002094  47.0811 313.0356 15.08847314 43135,6917.858,95.437,541.172,538.274,0.0
51135.0,STARLINK-3363,PAYLOAD,2022-10-27 20:12:06,15.08848179,0.0002185,53.2163,55.6475,44.467,315.6497,0.00014043,1.948e-05,0.0,0 STARLINK-3363,1 51135U 22005AH  22300.84174616  .00001948  00000-0  14043-3 0  9995,2 51135  53.2163  55.6475 0002185  44.4670 315.6497 15.08848179 44330,6917.855,95.437,541.232,538.2090000000002,0.0
51135.0,STARLINK-3363,PAYLOAD,2022-10-28 12:05:57,15.08853564,0.0002073,53.2183,52.672,50.1037,310.0137,3.9885e-05,3.47e-06,0.0,0 STARLINK-3363,1 51135U 22005AH  22301.50414233  .00000347  00000-0  39885-4 0  9995,2 51135  53.2183  52.6720 0002073  50.1037 310.0137 15.08853564 43310,6917.839,95.437,541.138,538.27,0.0
51135.0,STARLINK-3363,PAYLOAD,2022-10-28 16:52:06,15.08858297,0.0001816,53.2185,51.7783,46.6195,313.4948,4.8734e-05,4.88e-06,0.0,0 STARLINK-3363,1 51135U 22005AH  22301.70285599  .00000488  00000-0  48734-4 0  9997,2 51135  53.2185  51.7783 0001816  46.6195 313.4948 15.08858297 43348,6917.824000000001,95.436,540.946,538.433,0.0
51135.0,STARLINK-3363,PAYLOAD,2022-10-29 00:49:02,15.08857045,0.0002011,53.2192,50.2922,43.4599,316.6551,4.603399999999999e-05,4.45e-06,0.0,0 STARLINK-3363,1 51135U 22005AH  22302.03405498  .00000445  00000-0  46034-4 0  9990,2 51135  53.2192  50.2922 0002011  43.4599 316.6551 15.08857045 44511,6917.828,95.436,541.0840000000002,538.302,0.0
51135.0,STARLINK-3363,PAYLOAD,2022-10-29 18:18:16,15.08853622,0.0001958,53.2184,47.0231,45.7644,314.3508,6.2747e-05,7.11e-06,0.0,0 STARLINK-3363,1 51135U 22005AH  22302.76269176  .00000711  00000-0  62747-4 0  9996,2 51135  53.2184  47.0231 0001958  45.7644 314.3508 15.08853622 43506,6917.839,95.437,541.058,538.349,0.0
51135.0,STARLINK-3363,PAYLOAD,2022-10-30 11:47:31,15.08845748,0.0001972,53.2183,43.7521,45.7535,314.3618,8.4206e-05,1.052e-05,0.0,0 STARLINK-3363,1 51135U 22005AH  22303.49133349  .00001052  00000-0  84206-4 0  9992,2 51135  53.2183  43.7521 0001972  45.7535 314.3618 15.08845748 43619,6917.863,95.437,541.092,538.364,0.0
51135.0,STARLINK-3363,PAYLOAD,2022-10-30 16:33:40,15.0884449,0.0002008,53.2179,42.8615,42.4656,317.6492,2.7301e-05,1.46e-06,0.0,0 STARLINK-3363,1 51135U 22005AH  22303.69005407  .00000146  00000-0  27301-4 0  9993,2 51135  53.2179  42.8615 0002008  42.4656 317.6492 15.08844490 43649,6917.8669999999975,95.437,541.121,538.3430000000002,0.0
51135.0,STARLINK-3363,PAYLOAD,2022-10-31 10:02:55,15.08839019,0.000212,53.2177,39.5903,41.7297,318.3856,7.0561e-05,8.35e-06,0.0,0 STARLINK-3363,1 51135U 22005AH  22304.41869670  .00000835  00000-0  70561-4 0  9995,2 51135  53.2177  39.5903 0002120  41.7297 318.3856 15.08839019 43753,6917.8830000000025,95.438,541.215,538.2819999999998,0.0
51135.0,STARLINK-3363,PAYLOAD,2022-10-31 13:13:41,15.08841154,0.0002117,53.2177,38.9955,42.3653,317.7503,9.3725e-05,1.204e-05,0.0,0 STARLINK-3363,1 51135U 22005AH  22304.55117560  .00001204  00000-0  93725-4 0  9992,2 51135  53.2177  38.9955 0002117  42.3653 317.7503 15.08841154 43779,6917.877,95.437,541.206,538.2769999999998,0.0
51135.0,STARLINK-3363,PAYLOAD,2022-11-01 13:04:29,15.08829088,0.0002016,53.2191,34.5362,39.1547,320.959,3.8253e-05,3.2e-06,0.0,0 STARLINK-3363,1 51135U 22005AH  22305.54478712  .00000320  00000-0  38253-4 0  9994,2 51135  53.2191  34.5362 0002016  39.1547 320.9590 15.08829088 45049,6917.9140000000025,95.438,541.173,538.384,0.0
51135.0,STARLINK-3363,PAYLOAD,2022-11-01 16:15:15,15.08831923,0.0002092,53.219,33.9399,36.3591,323.7543,5.3267e-05,5.59e-06,0.0,0 STARLINK-3363,1 51135U 22005AH  22305.67726594  .00000559  00000-0  53267-4 0  9998,2 51135  53.2190  33.9399 0002092  36.3591 323.7543 15.08831923 43940,6917.905,95.438,541.217,538.323,0.0
51135.0,STARLINK-3363,PAYLOAD,2022-11-02 04:58:20,15.08838262,0.0002110999999999,53.2196,31.5608,35.7585,324.3548,0.00011518,1.545e-05,0.0,0 STARLINK-3363,1 51135U 22005AH  22306.20718292  .00001545  00000-0  11518-3 0  9992,2 51135  53.2196  31.5608 0002111  35.7585 324.3548 15.08838262 45140,6917.886,95.438,541.211,538.29,0.0
51135.0,STARLINK-3363,PAYLOAD,2022-11-02 12:55:17,15.08828301,0.0002098,53.2186,30.0748,36.4691,323.6443,-1.6254e-05,-5.47e-06,0.0,0 STARLINK-3363,1 51135U 22005AH  22306.53839309 -.00000547  00000-0 -16254-4 0  9997,2 51135  53.2186  30.0748 0002098  36.4691 323.6443 15.08828301 45192,6917.916,95.438,541.2330000000002,538.33,0.0
51135.0,STARLINK-3363,PAYLOAD,2022-11-02 16:06:04,15.08817899,0.0002153,53.2185,29.4801,33.85,326.2629,-5.5241e-05,-1.167e-05,0.0,0 STARLINK-3363,1 51135U 22005AH  22306.67088234 -.00001167  00000-0 -55241-4 0  9993,2 51135  53.2185  29.4801 0002153  33.8500 326.2629 15.08817899 45213,6917.948,95.439,541.302,538.3240000000002,0.0
51135.0,STARLINK-3363,PAYLOAD,2022-11-03 11:10:42,15.0882678,0.0002198,53.2184,25.912,34.1198,325.9935,8.7217e-05,1.1e-05,0.0,0 STARLINK-3363,1 51135U 22005AH  22307.46576402  .00001100  00000-0  87217-4 0  9993,2 51135  53.2184  25.9120 0002198  34.1198 325.9935 15.08826780 45331,6917.920999999999,95.438,541.306,538.265,0.0
51135.0,STARLINK-3363,PAYLOAD,2022-11-03 15:56:50,15.088355900000002,0.0002264,53.2177,25.0193,34.7183,325.3957,0.00018509,2.658e-05,0.0,0 STARLINK-3363,1 51135U 22005AH  22307.66447849  .00002658  00000-0  18509-3 0  9993,2 51135  53.2177  25.0193 0002264  34.7183 325.3957 15.08835590 45368,6917.894,95.438,541.325,538.193,0.0
51135.0,STARLINK-3363,PAYLOAD,2022-11-04 04:39:55,15.08855353,0.0002214,53.2178,22.64,33.088,327.025,0.00040822,6.217e-05,0.0,0 STARLINK-3363,1 51135U 22005AH  22308.19439022  .00006217  00000-0  40822-3 0  9994,2 51135  53.2178  22.6400 0002214  33.0880 327.0250 15.08855353 45447,6917.833000000001,95.437,541.23,538.1669999999998,0.0
51135.0,STARLINK-3363,PAYLOAD,2022-11-04 09:26:04,15.08869583,0.0002092,53.2175,21.7481,33.9723,326.1403,0.0011193,0.00017585,0.0,0 STARLINK-3363,1 51135U 22005AH  22308.39311141  .00017585  00000-0  11193-2 0  9995,2 51135  53.2175  21.7481 0002092  33.9723 326.1403 15.08869583 44351,6917.79,95.436,541.102,538.2080000000002,0.0
51135.0,STARLINK-3363,PAYLOAD,2022-11-04 14:12:13,15.08863661,0.0001385,53.2175,20.8567,41.1128,318.9968,0.00059129,9.141e-05,0.0,0 STARLINK-3363,1 51135U 22005AH  22308.59182838  .00009141  00000-0  59129-3 0  9997,2 51135  53.2175  20.8567 0001385  41.1128 318.9968 15.08863661 44389,6917.808000000001,95.436,540.631,538.715,0.0
51135.0,STARLINK-3363,PAYLOAD,2022-11-05 04:30:42,15.08847583,0.0002447,53.2177,18.1803,40.2497,319.8676,0.00014614,2.039e-05,0.0,0 STARLINK-3363,1 51135U 22005AH  22309.18799202  .00002039  00000-0  14614-3 0  9991,2 51135  53.2177  18.1803 0002447  40.2497 319.8676 15.08847583 45598,6917.857,95.437,541.415,538.029,0.0
